METEOSAT-5 (MOP-2)      
1 21140U 91015B   09117.85960997  .00000014  00000-0  10000-3 0  7475
2 21140  10.8093  49.6661 0003909 149.9994 209.9321  0.98450109 68588
METEOSAT-6 (MOP-3)      
1 22912U 93073B   09117.87843240 -.00000018  00000-0  10000-3 0   379
2 22912   8.2552  60.4773 0002050 309.9278 229.2009  1.00272068 54966
HIMAWARI-5 (GMS-5)      
1 23522U 95011B   09118.20037534 -.00000318  00000-0  10000-3 0  2072
2 23522   7.4054  63.4626 0007709 317.8413  41.9945  0.99408267 51444
GOES 10                 
1 24786U 97019A   09117.40079272 -.00000280  00000-0  10000-3 0  8851
2 24786   3.5053  75.2018 0003106 326.6029 258.0011  1.00280364 43992
ORBVIEW 2 (SEASTAR)     
1 24883U 97037A   09117.90698400 -.00000047  00000-0  15598-6 0  7742
2 24883  98.3347 241.5040 0002103  30.6172 329.5146 14.59985196625103
METEOSAT-7              
1 24932U 97049B   09118.67381509  .00000063  00000-0  10000-3 0  5604
2 24932   5.0775  70.1953 0000837 342.7329 104.0016  1.00277329 42693
NOAA 15                 
1 25338U 98030A   09118.40238637 -.00000007  00000-0  15532-4 0  9058
2 25338  98.5838 108.7085 0010302 197.0913 162.9918 14.24755590569681
GOES 11                 
1 26352U 00022A   09118.40993384  .00000085  00000-0  10000-3 0  2913
2 26352   0.3166  85.3069 0001970 281.1916 222.6832  1.00283774 32903
FENGYUN 2B              
1 26382U 00032A   09117.13636742 -.00000063  00000-0  10000-3 0  1611
2 26382   4.2119  73.0894 0003975 199.7184 160.1800  1.00109592 32350
NOAA 16                 
1 26536U 00055A   09118.42484785  .00000007  00000-0  28764-4 0  3816
2 26536  99.1762 120.8892 0011340  64.0282 296.2081 14.12515646443272
GOES 12                 
1 26871U 01031A   09118.41676571 -.00000250  00000-0  10000-3 0   336
2 26871   0.1067 257.2178 0004138 165.6849 228.7530  1.00265319 28506
FENGYUN 1D              
1 27431U 02024B   09118.44751711  .00000086  00000-0  73387-4 0  5389
2 27431  98.6240 110.2552 0015044 192.5674 167.5115 14.09282284357801
NOAA 17                 
1 27453U 02032A   09118.46615055  .00000167  00000-0  91121-4 0  3906
2 27453  98.4874 179.2389 0010705 267.7569  92.2388 14.24059112355674
METEOSAT-8 (MSG-1)      
1 27509U 02040B   09116.99206161  .00000068  00000-0  10000-3 0  2407
2 27509   0.5207  24.0807 0011890  88.2433 109.2947  1.00278131 24480
KALPANA-1 (METSAT 1)    
1 27525U 02043A   09117.70415595 -.00000075  00000-0  10000-3 0  9069
2 27525   0.0846  79.1687 0007434 345.2040 118.9294  1.00271743 24291
INSAT-3A                
1 27714U 03013A   09117.94550785 -.00000257  00000-0  10000-3 0  5893
2 27714   0.1090  77.5375 0005190 343.1870 229.2139  1.00270501 22196
FENGYUN 2C              
1 28451U 04042A   09118.39360978 -.00000327  00000-0  00000+0 0  4902
2 28451   1.2729  77.6631 0001911 336.2968  48.3265  1.00261856 16556
HIMAWARI 6 (MTSAT-1R)   
1 28622U 05006A   09116.31322071 -.00000273  00000-0  10000-3 0  1097
2 28622   0.0813  52.0744 0001965 194.2749 220.9448  1.00271002 15236
NOAA 18                 
1 28654U 05018A   09118.48934642 -.00000149  00000-0 -58112-4 0  8792
2 28654  98.9052  62.1217 0014909 139.9913 220.2364 14.11250437202941
METEOSAT-9 (MSG-2)      
1 28912U 05049B   09109.91088065  .00000001  00000-0  10000-3 0  4974
2 28912   0.4637 122.9236 0001777 215.1050 197.9670  1.00278284 12267
MTSAT-2                 
1 28937U 06004A   09116.48385403 -.00000238  00000-0  10000-3 0  5625
2 28937   0.0212 264.8712 0003051 117.6775 151.2002  1.00267202 11710
FORMOSAT 3A             
1 29047U 06011A   09118.10029830  .00000093  00000-0  54313-4 0  9398
2 29047  71.9787 123.1867 0053537 231.1118 128.5259 14.27100716160582
FORMOSAT 3B             
1 29048U 06011B   09118.69346446  .00000390  00000-0  17471-3 0  9863
2 29048  71.9724  37.5030 0046057 180.9668 179.1383 14.27115264163143
FORMOSAT 3C             
1 29049U 06011C   09118.57036975  .00000361  00000-0  16364-3 0  9255
2 29049  72.0233 186.5414 0037378 243.2844 116.4455 14.27118847158909
FORMOSAT 3D             
1 29050U 06011D   09117.91007095  .00001097  00000-0  26646-3 0  2079
2 29050  72.0103  11.0208 0051938 134.8489 225.6884 14.54003680163934
FORMOSAT 3E             
1 29051U 06011E   09118.04112281  .00000373  00000-0  16522-3 0  9872
2 29051  72.0037  96.7084 0068326 112.9842 247.8482 14.27115550161413
FORMOSAT 3F             
1 29052U 06011F   09118.36925397  .00000360  00000-0  16273-3 0    25
2 29052  72.0359 157.8992 0042616 214.6498 145.1816 14.27112815159766
GOES 13                 
1 29155U 06018A   09117.53879771 -.00000085  00000-0  00000+0 0  6150
2 29155   0.2720 251.4848 0001231 343.9870  69.0589  1.00268015 10740
METOP-A                 
1 29499U 06044A   09117.85343111  .00000081  00000-0  57142-4 0  7924
2 29499  98.6905 178.7911 0001030  95.0923 265.0360 14.21498058130860
FENGYUN 2D              
1 29640U 06053A   09117.96486902 -.00000198  00000-0  10000-3 0  6324
2 29640   0.4110 246.8666 0000340 118.2277 284.7996  1.00275940  8799
FENGYUN 3A              
1 32958U 08026A   09118.36502925  .00000167  00000-0  10000-3 0  2906
2 32958  98.7712 190.3161 0000623  25.2394 334.8756 14.19586616 47712
NOAA 19                 
1 33591U 09005A   09118.45867574  .00000059  00000-0  56764-4 0   841
2 33591  98.7446  65.5226 0014707  28.1837 332.0104 14.10953373 11422
